{
    "links": {
        "self": "http://www.neowsapp.com/rest/v1/neo/3760061?api_key=iIulBulltgU6a56xZRHN4H3l9WmuAYTsLGpBGhQ2"
    },
    "id": "3760061",
    "neo_reference_id": "3760061",
    "name": "(2016 TA)",
    "designation": "2016 TA",
    "nasa_jpl_url": "http://ssd.jpl.nasa.gov/sbdb.cgi?sstr=3760061",
    "absolute_magnitude_h": 26.3,
    "estimated_diameter": {
        "kilometers": {
            "estimated_diameter_min": 0.0146067964,
            "estimated_diameter_max": 0.0326617897
        },
        "meters": {
            "estimated_diameter_min": 14.6067964271,
            "estimated_diameter_max": 32.6617897446
        },
        "miles": {
            "estimated_diameter_min": 0.0090762397,
            "estimated_diameter_max": 0.020295089
        },
        "feet": {
            "estimated_diameter_min": 47.92256199,
            "estimated_diameter_max": 107.1581062656
        }
    },
    "is_potentially_hazardous_asteroid": false,
    "close_approach_data": [
        {
            "close_approach_date": "2016-10-02",
            "close_approach_date_full": "2016-Oct-02 06:28",
            "epoch_date_close_approach": 1475389680000,
            "relative_velocity": {
                "kilometers_per_second": "31.9907289805",
                "kilometers_per_hour": "115166.6243298799",
                "miles_per_hour": "71560.0616565301"
            },
            "miss_distance": {
                "astronomical": "0.0059141636",
                "lunar": "2.3006096404",
                "kilometers": "884746.277391532",
                "miles": "549755.8442538616"
            },
            "orbiting_body": "Earth"
        },
        {
            "close_approach_date": "2016-10-02",
            "close_approach_date_full": "2016-Oct-02 09:58",
            "epoch_date_close_approach": 1475402280000,
            "relative_velocity": {
                "kilometers_per_second": "31.9700914203",
                "kilometers_per_hour": "115092.3291131074",
                "miles_per_hour": "71513.8974980861"
            },
            "miss_distance": {
                "astronomical": "0.0059503018",
                "lunar": "2.3146674002",
                "kilometers": "890152.475137166",
                "miles": "553115.0997622508"
            },
            "orbiting_body": "Moon"
        },
        {
            "close_approach_date": "2033-02-04",
            "close_approach_date_full": "2033-Feb-04 22:24",
            "epoch_date_close_approach": 1991168640000,
            "relative_velocity": {
                "kilometers_per_second": "9.6308099861",
                "kilometers_per_hour": "34670.9159500066",
                "miles_per_hour": "21543.158857936"
            },
            "miss_distance": {
                "astronomical": "0.8489637437",
                "lunar": "330.2468962993",
                "kilometers": "127003167.764745919",
                "miles": "78916109.0604109222"
            },
            "orbiting_body": "Juptr"
        }
    ],
    "orbital_data": {
        "orbit_id": "3",
        "orbit_determination_date": "2017-04-06 08:23:30",
        "first_observation_date": "2016-10-01",
        "last_observation_date": "2016-10-02",
        "data_arc_in_days": 1,
        "observations_used": 49,
        "orbit_uncertainty": "8",
        "minimum_orbit_intersection": ".00589623",
        "jupiter_tisserand_invariant": "2.793",
        "epoch_osculation": "2457663.5",
        "eccentricity": ".8907558816723483",
        "semi_major_axis": "2.38425884652356",
        "inclination": "7.214829760596869",
        "ascending_node_longitude": "6.63392257921504",
        "orbital_period": "1344.709679208684",
        "perihelion_distance": ".2604662555533701",
        "perihelion_argument": "127.4565801951398",
        "aphelion_distance": "4.508051437493751",
        "perihelion_time": "2457703.492681492216",
        "mean_anomaly": "349.2933280991402",
        "mean_motion": ".2677157795219022",
        "equinox": "J2000",
        "orbit_class": {
            "orbit_class_type": "APO",
            "orbit_class_description": "Near-Earth asteroid orbits which cross the Earth’s orbit similar to that of 1862 Apollo",
            "orbit_class_range": "a (semi-major axis) > 1.0 AU; q (perihelion) < 1.017 AU"
        }
    },
    "is_sentry_object": false
}